{"fetched_at":"2026-07-14T06:34:20.123Z","source":"https://celestrak.org/NORAD/elements/gp.php?GROUP=kuiper&FORMAT=JSON","constellation":"kuiper","records":[{"OBJECT_NAME":"KUIPER-00265","OBJECT_ID":"2025-301AC","EPOCH":"2026-07-13T08:15:43.230240","CLASSIFICATION_TYPE":"U","MEAN_MOTION":14.79930046,"ECCENTRICITY":0.00003993,"INCLINATION":51.9022,"RA_OF_ASC_NODE":249.9996,"ARG_OF_PERICENTER":107.9857,"MEAN_ANOMALY":252.1149,"EPHEMERIS_TYPE":0,"NORAD_CAT_ID":67159,"ELEMENT_SET_NO":999,"REV_AT_EPOCH":3209,"BSTAR":0.00010146901,"MEAN_MOTION_DOT":0.00000552,"MEAN_MOTION_DDOT":0},{"OBJECT_NAME":"KUIPER-00159","OBJECT_ID":"2026-030A","EPOCH":"2026-07-13T20:00:01.999008","CLASSIFICATION_TYPE":"U","MEAN_MOTION":15.27863748,"ECCENTRICITY":0.0005468,"INCLINATION":51.889,"RA_OF_ASC_NODE":329.6106,"ARG_OF_PERICENTER":129.1586,"MEAN_ANOMALY":243.0916,"EPHEMERIS_TYPE":0,"NORAD_CAT_ID":67764,"ELEMENT_SET_NO":999,"REV_AT_EPOCH":523,"BSTAR":-0.044593,"MEAN_MOTION_DOT":-0.0112361,"MEAN_MOTION_DDOT":0},{"OBJECT_NAME":"KUIPER-00160","OBJECT_ID":"2026-030B","EPOCH":"2026-07-13T16:22:46.583040","CLASSIFICATION_TYPE":"U","MEAN_MOTION":15.37468088,"ECCENTRICITY":0.0005885,"INCLINATION":51.8816,"RA_OF_ASC_NODE":330.1042,"ARG_OF_PERICENTER":133.9647,"MEAN_ANOMALY":226.1827,"EPHEMERIS_TYPE":0,"NORAD_CAT_ID":67765,"ELEMENT_SET_NO":999,"REV_AT_EPOCH":2447,"BSTAR":0.00024051,"MEAN_MOTION_DOT":0.00008597,"MEAN_MOTION_DDOT":0},{"OBJECT_NAME":"KUIPER-00177","OBJECT_ID":"2026-030C","EPOCH":"2026-07-13T16:42:41.912352","CLASSIFICATION_TYPE":"U","MEAN_MOTION":14.79940258,"ECCENTRICITY":0.0000674,"INCLINATION":51.9018,"RA_OF_ASC_NODE":15.9227,"ARG_OF_PERICENTER":123.1492,"MEAN_ANOMALY":236.9535,"EPHEMERIS_TYPE":0,"NORAD_CAT_ID":67766,"ELEMENT_SET_NO":999,"REV_AT_EPOCH":2383,"BSTAR":0.00026327,"MEAN_MOTION_DOT":0.00001787,"MEAN_MOTION_DDOT":0},{"OBJECT_NAME":"KUIPER-00178","OBJECT_ID":"2026-030D","EPOCH":"2026-07-13T19:08:32.936352","CLASSIFICATION_TYPE":"U","MEAN_MOTION":14.7994292,"ECCENTRICITY":0.0000738,"INCLINATION":51.9013,"RA_OF_ASC_NODE":15.4567,"ARG_OF_PERICENTER":122.1067,"MEAN_ANOMALY":237.9967,"EPHEMERIS_TYPE":0,"NORAD_CAT_ID":67767,"ELEMENT_SET_NO":999,"REV_AT_EPOCH":2385,"BSTAR":0.00025832,"MEAN_MOTION_DOT":0.00001749,"MEAN_MOTION_DDOT":0},{"OBJECT_NAME":"KUIPER-00180","OBJECT_ID":"2026-030E","EPOCH":"2026-07-13T19:16:19.670016","CLASSIFICATION_TYPE":"U","MEAN_MOTION":14.7993132,"ECCENTRICITY":0.0000698,"INCLINATION":51.8995,"RA_OF_ASC_NODE":10.4358,"ARG_OF_PERICENTER":123.4709,"MEAN_ANOMALY":236.632,"EPHEMERIS_TYPE":0,"NORAD_CAT_ID":67768,"ELEMENT_SET_NO":999,"REV_AT_EPOCH":2392,"BSTAR":0.000059988,"MEAN_MOTION_DOT":0.00000236,"MEAN_MOTION_DDOT":0},{"OBJECT_NAME":"KUIPER-00197","OBJECT_ID":"2026-030F","EPOCH":"2026-07-13T18:10:08.994720","CLASSIFICATION_TYPE":"U","MEAN_MOTION":14.79931163,"ECCENTRICITY":0.0000561,"INCLINATION":51.9007,"RA_OF_ASC_NODE":350.6509,"ARG_OF_PERICENTER":167.5978,"MEAN_ANOMALY":192.4998,"EPHEMERIS_TYPE":0,"NORAD_CAT_ID":67769,"ELEMENT_SET_NO":999,"REV_AT_EPOCH":2419,"BSTAR":0.0000086851,"MEAN_MOTION_DOT":-0.00000155,"MEAN_MOTION_DDOT":0},{"OBJECT_NAME":"KUIPER-00198","OBJECT_ID":"2026-030G","EPOCH":"2026-07-13T20:16:35.069376","CLASSIFICATION_TYPE":"U","MEAN_MOTION":14.7992631,"ECCENTRICITY":0.0000616,"INCLINATION":51.8999,"RA_OF_ASC_NODE":2.7469,"ARG_OF_PERICENTER":119.0081,"MEAN_ANOMALY":241.0943,"EPHEMERIS_TYPE":0,"NORAD_CAT_ID":67770,"ELEMENT_SET_NO":999,"REV_AT_EPOCH":2403,"BSTAR":0.00027016,"MEAN_MOTION_DOT":0.00001839,"MEAN_MOTION_DDOT":0},{"OBJECT_NAME":"KUIPER-00199","OBJECT_ID":"2026-030H","EPOCH":"2026-07-13T15:23:26.584224","CLASSIFICATION_TYPE":"U","MEAN_MOTION":15.37013898,"ECCENTRICITY":0.0010372,"INCLINATION":51.8826,"RA_OF_ASC_NODE":332.038,"ARG_OF_PERICENTER":146.7215,"MEAN_ANOMALY":213.4425,"EPHEMERIS_TYPE":0,"NORAD_CAT_ID":67771,"ELEMENT_SET_NO":999,"REV_AT_EPOCH":2444,"BSTAR":0.00045013,"MEAN_MOTION_DOT":0.00016222,"MEAN_MOTION_DDOT":0},{"OBJECT_NAME":"KUIPER-00200","OBJECT_ID":"2026-030J","EPOCH":"2026-07-13T20:39:56.020320","CLASSIFICATION_TYPE":"U","MEAN_MOTION":14.79871899,"ECCENTRICITY":0.0001345,"INCLINATION":51.9,"RA_OF_ASC_NODE":347.7197,"ARG_OF_PERICENTER":78.3209,"MEAN_ANOMALY":281.7905,"EPHEMERIS_TYPE":0,"NORAD_CAT_ID":67772,"ELEMENT_SET_NO":999,"REV_AT_EPOCH":2424,"BSTAR":0.0002777,"MEAN_MOTION_DOT":0.00001893,"MEAN_MOTION_DDOT":0},{"OBJECT_NAME":"KUIPER-00203","OBJECT_ID":"2026-030K","EPOCH":"2026-07-13T19:49:25.468608","CLASSIFICATION_TYPE":"U","MEAN_MOTION":14.79930585,"ECCENTRICITY":0.0000827,"INCLINATION":51.9077,"RA_OF_ASC_NODE":20.3941,"ARG_OF_PERICENTER":139.6767,"MEAN_ANOMALY":220.4257,"EPHEMERIS_TYPE":0,"NORAD_CAT_ID":67773,"ELEMENT_SET_NO":999,"REV_AT_EPOCH":2378,"BSTAR":0.00027091,"MEAN_MOTION_DOT":0.00001844,"MEAN_MOTION_DDOT":0},{"OBJECT_NAME":"KUIPER-00205","OBJECT_ID":"2026-030L","EPOCH":"2026-07-13T17:29:08.072160","CLASSIFICATION_TYPE":"U","MEAN_MOTION":14.79948172,"ECCENTRICITY":0.0001034,"INCLINATION":51.9022,"RA_OF_ASC_NODE":345.7558,"ARG_OF_PERICENTER":113.6072,"MEAN_ANOMALY":246.4999,"EPHEMERIS_TYPE":0,"NORAD_CAT_ID":67774,"ELEMENT_SET_NO":999,"REV_AT_EPOCH":2426,"BSTAR":-0.00035195,"MEAN_MOTION_DOT":-0.00002904,"MEAN_MOTION_DDOT":0},{"OBJECT_NAME":"KUIPER-00208","OBJECT_ID":"2026-030M","EPOCH":"2026-07-13T19:03:18.501696","CLASSIFICATION_TYPE":"U","MEAN_MOTION":14.76517128,"ECCENTRICITY":0.0008205,"INCLINATION":51.8987,"RA_OF_ASC_NODE":12.9122,"ARG_OF_PERICENTER":118.7862,"MEAN_ANOMALY":241.3924,"EPHEMERIS_TYPE":0,"NORAD_CAT_ID":67775,"ELEMENT_SET_NO":999,"REV_AT_EPOCH":2388,"BSTAR":0.00020457,"MEAN_MOTION_DOT":0.00001223,"MEAN_MOTION_DDOT":0},{"OBJECT_NAME":"KUIPER-00209","OBJECT_ID":"2026-030N","EPOCH":"2026-07-13T16:50:28.457664","CLASSIFICATION_TYPE":"U","MEAN_MOTION":14.79931842,"ECCENTRICITY":0.0000687,"INCLINATION":51.9022,"RA_OF_ASC_NODE":10.9764,"ARG_OF_PERICENTER":111.7913,"MEAN_ANOMALY":248.3122,"EPHEMERIS_TYPE":0,"NORAD_CAT_ID":67776,"ELEMENT_SET_NO":999,"REV_AT_EPOCH":2390,"BSTAR":0.000084304,"MEAN_MOTION_DOT":0.00000422,"MEAN_MOTION_DDOT":0},{"OBJECT_NAME":"KUIPER-00213","OBJECT_ID":"2026-030P","EPOCH":"2026-07-13T16:05:43.869696","CLASSIFICATION_TYPE":"U","MEAN_MOTION":14.79930848,"ECCENTRICITY":0.0000646,"INCLINATION":51.898,"RA_OF_ASC_NODE":8.5941,"ARG_OF_PERICENTER":119.4476,"MEAN_ANOMALY":240.6551,"EPHEMERIS_TYPE":0,"NORAD_CAT_ID":67777,"ELEMENT_SET_NO":999,"REV_AT_EPOCH":2393,"BSTAR":0.00029416,"MEAN_MOTION_DOT":0.00002022,"MEAN_MOTION_DDOT":0},{"OBJECT_NAME":"KUIPER-00214","OBJECT_ID":"2026-030Q","EPOCH":"2026-07-13T16:58:14.799072","CLASSIFICATION_TYPE":"U","MEAN_MOTION":14.79941029,"ECCENTRICITY":0.0000506,"INCLINATION":51.9006,"RA_OF_ASC_NODE":5.9423,"ARG_OF_PERICENTER":114.7802,"MEAN_ANOMALY":245.3213,"EPHEMERIS_TYPE":0,"NORAD_CAT_ID":67778,"ELEMENT_SET_NO":999,"REV_AT_EPOCH":2397,"BSTAR":0.00027746,"MEAN_MOTION_DOT":0.00001895,"MEAN_MOTION_DDOT":0}]}
